[{"OBJECT_NAME":"JILIN-1 KUANFU 01","OBJECT_ID":"2020-003A","EPOCH":"2026-03-09T21:54:33.175008","MEAN_MOTION":15.10079256,"ECCENTRICITY":0.00082994,"INCLINATION":97.5094,"RA_OF_ASC_NODE":144.8213,"ARG_OF_PERICENTER":285.3859,"MEAN_ANOMALY":74.6453,"EPHEMERIS_TYPE":0,"CLASSIFICATION_TYPE":"U","NORAD_CAT_ID":45016,"ELEMENT_SET_NO":999,"REV_AT_EPOCH":34034,"BSTAR":0.00024799476,"MEAN_MOTION_DOT":3.977e-5,"MEAN_MOTION_DDOT":0},{"OBJECT_NAME":"STARLINK-4782","OBJECT_ID":"2022-119AZ","EPOCH":"2026-03-09T22:21:07.305984","MEAN_MOTION":15.08834656,"ECCENTRICITY":0.00013913,"INCLINATION":53.2173,"RA_OF_ASC_NODE":302.8926,"ARG_OF_PERICENTER":92.1273,"MEAN_ANOMALY":267.9878,"EPHEMERIS_TYPE":0,"CLASSIFICATION_TYPE":"U","NORAD_CAT_ID":53933,"ELEMENT_SET_NO":999,"REV_AT_EPOCH":19200,"BSTAR":0.00019607296,"MEAN_MOTION_DOT":2.834e-5,"MEAN_MOTION_DDOT":0}]
